[{"OBJECT_NAME":"CANX-4","OBJECT_ID":"2014-034C","EPOCH":"2026-04-25T14:17:49.987680","MEAN_MOTION":14.81165309,"ECCENTRICITY":0.00128182,"INCLINATION":98.3195,"RA_OF_ASC_NODE":348.9616,"ARG_OF_PERICENTER":174.3382,"MEAN_ANOMALY":185.7976,"EPHEMERIS_TYPE":0,"CLASSIFICATION_TYPE":"U","NORAD_CAT_ID":40055,"ELEMENT_SET_NO":999,"REV_AT_EPOCH":63674,"BSTAR":0.00010714859,"MEAN_MOTION_DOT":7.77e-6,"MEAN_MOTION_DDOT":0},{"OBJECT_NAME":"CANX-5","OBJECT_ID":"2014-034D","EPOCH":"2026-04-26T09:43:47.374752","MEAN_MOTION":14.81184673,"ECCENTRICITY":0.0012861,"INCLINATION":98.3197,"RA_OF_ASC_NODE":349.8421,"ARG_OF_PERICENTER":172.0014,"MEAN_ANOMALY":188.1405,"EPHEMERIS_TYPE":0,"CLASSIFICATION_TYPE":"U","NORAD_CAT_ID":40056,"ELEMENT_SET_NO":999,"REV_AT_EPOCH":62767,"BSTAR":0.00013061,"MEAN_MOTION_DOT":9.6e-6,"MEAN_MOTION_DDOT":0},{"OBJECT_NAME":"VELOX-I","OBJECT_ID":"2014-034E","EPOCH":"2026-04-26T13:05:39.244704","MEAN_MOTION":14.9739396,"ECCENTRICITY":0.0009535,"INCLINATION":98.2586,"RA_OF_ASC_NODE":18.6293,"ARG_OF_PERICENTER":84.1505,"MEAN_ANOMALY":276.0802,"EPHEMERIS_TYPE":0,"CLASSIFICATION_TYPE":"U","NORAD_CAT_ID":40057,"ELEMENT_SET_NO":999,"REV_AT_EPOCH":63887,"BSTAR":0.00058438,"MEAN_MOTION_DOT":6.737e-5,"MEAN_MOTION_DDOT":0},{"OBJECT_NAME":"GONETS-M 10","OBJECT_ID":"2014-036C","EPOCH":"2026-04-26T13:18:39.963744","MEAN_MOTION":12.4294417,"ECCENTRICITY":0.0020892,"INCLINATION":82.5136,"RA_OF_ASC_NODE":339.7536,"ARG_OF_PERICENTER":254.9849,"MEAN_ANOMALY":104.8918,"EPHEMERIS_TYPE":0,"CLASSIFICATION_TYPE":"U","NORAD_CAT_ID":40063,"ELEMENT_SET_NO":999,"REV_AT_EPOCH":53583,"BSTAR":0.00050436,"MEAN_MOTION_DOT":8.0e-7,"MEAN_MOTION_DDOT":0},{"OBJECT_NAME":"METEOR-M 2","OBJECT_ID":"2014-037A","EPOCH":"2026-04-26T13:11:08.462400","MEAN_MOTION":14.21447287,"ECCENTRICITY":0.0005563,"INCLINATION":98.5086,"RA_OF_ASC_NODE":94.1269,"ARG_OF_PERICENTER":175.1224,"MEAN_ANOMALY":185.0009,"EPHEMERIS_TYPE":0,"CLASSIFICATION_TYPE":"U","NORAD_CAT_ID":40069,"ELEMENT_SET_NO":999,"REV_AT_EPOCH":61198,"BSTAR":0.00017752,"MEAN_MOTION_DOT":3.46e-6,"MEAN_MOTION_DDOT":0},{"OBJECT_NAME":"DX1","OBJECT_ID":"2014-037C","EPOCH":"2026-04-26T12:20:54.280896","MEAN_MOTION":14.89819022,"ECCENTRICITY":0.0008733,"INCLINATION":98.3829,"RA_OF_ASC_NODE":75.101,"ARG_OF_PERICENTER":81.4137,"MEAN_ANOMALY":278.8068,"EPHEMERIS_TYPE":0,"CLASSIFICATION_TYPE":"U","NORAD_CAT_ID":40071,"ELEMENT_SET_NO":999,"REV_AT_EPOCH":63841,"BSTAR":0.00024995,"MEAN_MOTION_DOT":2.338e-5,"MEAN_MOTION_DDOT":0},{"OBJECT_NAME":"UKUBE-1","OBJECT_ID":"2014-037F","EPOCH":"2026-04-26T10:55:13.873152","MEAN_MOTION":15.12718082,"ECCENTRICITY":0.000186,"INCLINATION":98.4249,"RA_OF_ASC_NODE":114.3291,"ARG_OF_PERICENTER":46.6334,"MEAN_ANOMALY":313.5049,"EPHEMERIS_TYPE":0,"CLASSIFICATION_TYPE":"U","NORAD_CAT_ID":40074,"ELEMENT_SET_NO":999,"REV_AT_EPOCH":64073,"BSTAR":0.00060029,"MEAN_MOTION_DOT":0.00010446,"MEAN_MOTION_DDOT":0},{"OBJECT_NAME":"GAOFEN-2","OBJECT_ID":"2014-049A","EPOCH":"2026-04-26T11:40:02.780256","MEAN_MOTION":14.80841285,"ECCENTRICITY":0.000846,"INCLINATION":98.0141,"RA_OF_ASC_NODE":180.736,"ARG_OF_PERICENTER":48.2649,"MEAN_ANOMALY":311.9285,"EPHEMERIS_TYPE":0,"CLASSIFICATION_TYPE":"U","NORAD_CAT_ID":40118,"ELEMENT_SET_NO":999,"REV_AT_EPOCH":63158,"BSTAR":0.00017323,"MEAN_MOTION_DOT":1.284e-5,"MEAN_MOTION_DDOT":0},{"OBJECT_NAME":"BRITE-PL2 (HEWELIUSZ)","OBJECT_ID":"2014-049B","EPOCH":"2026-04-26T06:47:49.864128","MEAN_MOTION":14.94396923,"ECCENTRICITY":0.0012698,"INCLINATION":97.9036,"RA_OF_ASC_NODE":227.9086,"ARG_OF_PERICENTER":283.0533,"MEAN_ANOMALY":76.9269,"EPHEMERIS_TYPE":0,"CLASSIFICATION_TYPE":"U","NORAD_CAT_ID":40119,"ELEMENT_SET_NO":999,"REV_AT_EPOCH":63369,"BSTAR":0.00016626,"MEAN_MOTION_DOT":1.733e-5,"MEAN_MOTION_DDOT":0},{"OBJECT_NAME":"CBERS 4","OBJECT_ID":"2014-079A","EPOCH":"2026-04-26T12:39:36.240192","MEAN_MOTION":14.35545647,"ECCENTRICITY":0.0001293,"INCLINATION":98.3392,"RA_OF_ASC_NODE":174.9872,"ARG_OF_PERICENTER":129.7263,"MEAN_ANOMALY":230.4038,"EPHEMERIS_TYPE":0,"CLASSIFICATION_TYPE":"U","NORAD_CAT_ID":40336,"ELEMENT_SET_NO":999,"REV_AT_EPOCH":59654,"BSTAR":0.00011919,"MEAN_MOTION_DOT":3.01e-6,"MEAN_MOTION_DDOT":0},{"OBJECT_NAME":"SMAP","OBJECT_ID":"2015-003A","EPOCH":"2026-04-26T10:56:52.359648","MEAN_MOTION":14.63392224,"ECCENTRICITY":0.0001782,"INCLINATION":98.1295,"RA_OF_ASC_NODE":124.2797,"ARG_OF_PERICENTER":77.1643,"MEAN_ANOMALY":282.9758,"EPHEMERIS_TYPE":0,"CLASSIFICATION_TYPE":"U","NORAD_CAT_ID":40376,"ELEMENT_SET_NO":999,"REV_AT_EPOCH":60005,"BSTAR":0.00010173,"MEAN_MOTION_DOT":4.79e-6,"MEAN_MOTION_DDOT":0},{"OBJECT_NAME":"GONETS-M 11","OBJECT_ID":"2015-020A","EPOCH":"2026-04-26T11:45:21.649824","MEAN_MOTION":12.42875089,"ECCENTRICITY":0.0017121,"INCLINATION":82.4854,"RA_OF_ASC_NODE":63.1985,"ARG_OF_PERICENTER":112.0944,"MEAN_ANOMALY":248.1956,"EPHEMERIS_TYPE":0,"CLASSIFICATION_TYPE":"U","NORAD_CAT_ID":40552,"ELEMENT_SET_NO":999,"REV_AT_EPOCH":50231,"BSTAR":0.0004614,"MEAN_MOTION_DOT":7.4e-7,"MEAN_MOTION_DDOT":0},{"OBJECT_NAME":"GONETS-M 12","OBJECT_ID":"2015-020B","EPOCH":"2026-04-26T13:03:58.168800","MEAN_MOTION":12.42889602,"ECCENTRICITY":0.0016293,"INCLINATION":82.4887,"RA_OF_ASC_NODE":64.275,"ARG_OF_PERICENTER":97.4656,"MEAN_ANOMALY":262.8275,"EPHEMERIS_TYPE":0,"CLASSIFICATION_TYPE":"U","NORAD_CAT_ID":40553,"ELEMENT_SET_NO":999,"REV_AT_EPOCH":50231,"BSTAR":9.8229e-6,"MEAN_MOTION_DOT":1.1e-7,"MEAN_MOTION_DDOT":0},{"OBJECT_NAME":"GONETS-M 13","OBJECT_ID":"2015-020C","EPOCH":"2026-04-26T12:24:31.837824","MEAN_MOTION":12.42868438,"ECCENTRICITY":0.0015007,"INCLINATION":82.485,"RA_OF_ASC_NODE":62.9219,"ARG_OF_PERICENTER":83.3199,"MEAN_ANOMALY":276.9588,"EPHEMERIS_TYPE":0,"CLASSIFICATION_TYPE":"U","NORAD_CAT_ID":40554,"ELEMENT_SET_NO":999,"REV_AT_EPOCH":50228,"BSTAR":0.00033488,"MEAN_MOTION_DOT":5.6e-7,"MEAN_MOTION_DDOT":0},{"OBJECT_NAME":"DMC3-FM1","OBJECT_ID":"2015-032A","EPOCH":"2026-04-26T13:09:34.028928","MEAN_MOTION":14.85678525,"ECCENTRICITY":0.0004419,"INCLINATION":97.6538,"RA_OF_ASC_NODE":343.73,"ARG_OF_PERICENTER":210.9862,"MEAN_ANOMALY":149.1093,"EPHEMERIS_TYPE":0,"CLASSIFICATION_TYPE":"U","NORAD_CAT_ID":40715,"ELEMENT_SET_NO":999,"REV_AT_EPOCH":58224,"BSTAR":1.8941e-5,"MEAN_MOTION_DOT":1.13e-6,"MEAN_MOTION_DDOT":0},{"OBJECT_NAME":"DMC3-FM2","OBJECT_ID":"2015-032B","EPOCH":"2026-04-26T13:41:34.278432","MEAN_MOTION":14.85680924,"ECCENTRICITY":0.0004951,"INCLINATION":97.6591,"RA_OF_ASC_NODE":345.2893,"ARG_OF_PERICENTER":219.0906,"MEAN_ANOMALY":140.9953,"EPHEMERIS_TYPE":0,"CLASSIFICATION_TYPE":"U","NORAD_CAT_ID":40716,"ELEMENT_SET_NO":999,"REV_AT_EPOCH":58224,"BSTAR":2.6257e-5,"MEAN_MOTION_DOT":1.76e-6,"MEAN_MOTION_DDOT":0},{"OBJECT_NAME":"DMC3-FM3","OBJECT_ID":"2015-032C","EPOCH":"2026-04-26T12:37:50.051136","MEAN_MOTION":14.85682229,"ECCENTRICITY":0.0004164,"INCLINATION":97.6643,"RA_OF_ASC_NODE":346.9664,"ARG_OF_PERICENTER":216.1863,"MEAN_ANOMALY":143.9072,"EPHEMERIS_TYPE":0,"CLASSIFICATION_TYPE":"U","NORAD_CAT_ID":40717,"ELEMENT_SET_NO":999,"REV_AT_EPOCH":58224,"BSTAR":9.433e-5,"MEAN_MOTION_DOT":7.66e-6,"MEAN_MOTION_DDOT":0},{"OBJECT_NAME":"CARBONITE 1 (CBNT-1)","OBJECT_ID":"2015-032D","EPOCH":"2026-04-26T12:23:28.874688","MEAN_MOTION":14.83419287,"ECCENTRICITY":0.0015945,"INCLINATION":97.65,"RA_OF_ASC_NODE":296.7569,"ARG_OF_PERICENTER":103.1904,"MEAN_ANOMALY":257.1091,"EPHEMERIS_TYPE":0,"CLASSIFICATION_TYPE":"U","NORAD_CAT_ID":40718,"ELEMENT_SET_NO":999,"REV_AT_EPOCH":58168,"BSTAR":0.00022427,"MEAN_MOTION_DOT":1.794e-5,"MEAN_MOTION_DDOT":0},{"OBJECT_NAME":"DEORBITSAIL","OBJECT_ID":"2015-032E","EPOCH":"2026-04-26T12:16:38.513568","MEAN_MOTION":15.03121599,"ECCENTRICITY":0.0014632,"INCLINATION":97.5957,"RA_OF_ASC_NODE":334.3336,"ARG_OF_PERICENTER":55.1945,"MEAN_ANOMALY":305.0655,"EPHEMERIS_TYPE":0,"CLASSIFICATION_TYPE":"U","NORAD_CAT_ID":40719,"ELEMENT_SET_NO":999,"REV_AT_EPOCH":58348,"BSTAR":0.00066538,"MEAN_MOTION_DOT":8.947e-5,"MEAN_MOTION_DDOT":0},{"OBJECT_NAME":"2015-049G","OBJECT_ID":"2015-049G","EPOCH":"2026-04-26T13:23:56.161824","MEAN_MOTION":15.62580899,"ECCENTRICITY":0.0006341,"INCLINATION":97.4625,"RA_OF_ASC_NODE":157.6707,"ARG_OF_PERICENTER":63.5519,"MEAN_ANOMALY":296.6389,"EPHEMERIS_TYPE":0,"CLASSIFICATION_TYPE":"U","NORAD_CAT_ID":40905,"ELEMENT_SET_NO":999,"REV_AT_EPOCH":58837,"BSTAR":0.00045712,"MEAN_MOTION_DOT":0.00040823,"MEAN_MOTION_DDOT":0},{"OBJECT_NAME":"LILACSAT-2","OBJECT_ID":"2015-049K","EPOCH":"2026-04-26T12:22:00.494400","MEAN_MOTION":15.49720232,"ECCENTRICITY":0.0008838,"INCLINATION":97.4732,"RA_OF_ASC_NODE":151.441,"ARG_OF_PERICENTER":85.1853,"MEAN_ANOMALY":275.0407,"EPHEMERIS_TYPE":0,"CLASSIFICATION_TYPE":"U","NORAD_CAT_ID":40908,"ELEMENT_SET_NO":999,"REV_AT_EPOCH":58774,"BSTAR":0.00037281,"MEAN_MOTION_DOT":0.00020647,"MEAN_MOTION_DDOT":0},{"OBJECT_NAME":"COSMOS 2507 (RODNIK-S 13)","OBJECT_ID":"2015-050A","EPOCH":"2026-04-26T11:22:57.245088","MEAN_MOTION":12.4292535,"ECCENTRICITY":0.0011122,"INCLINATION":82.488,"RA_OF_ASC_NODE":111.8693,"ARG_OF_PERICENTER":100.3077,"MEAN_ANOMALY":259.9257,"EPHEMERIS_TYPE":0,"CLASSIFICATION_TYPE":"U","NORAD_CAT_ID":40920,"ELEMENT_SET_NO":999,"REV_AT_EPOCH":48043,"BSTAR":0.00047006,"MEAN_MOTION_DOT":7.5e-7,"MEAN_MOTION_DDOT":0},{"OBJECT_NAME":"COSMOS 2508 (RODNIK-S 14)","OBJECT_ID":"2015-050B","EPOCH":"2026-04-26T12:13:18.820704","MEAN_MOTION":12.4291211,"ECCENTRICITY":0.0015027,"INCLINATION":82.4831,"RA_OF_ASC_NODE":110.372,"ARG_OF_PERICENTER":132.1168,"MEAN_ANOMALY":228.1191,"EPHEMERIS_TYPE":0,"CLASSIFICATION_TYPE":"U","NORAD_CAT_ID":40921,"ELEMENT_SET_NO":999,"REV_AT_EPOCH":48042,"BSTAR":-0.00046637,"MEAN_MOTION_DOT":-5.5e-7,"MEAN_MOTION_DDOT":0},{"OBJECT_NAME":"COSMOS 2509 (RODNIK-S 15)","OBJECT_ID":"2015-050C","EPOCH":"2026-04-26T10:44:50.313120","MEAN_MOTION":12.4288198,"ECCENTRICITY":0.0015027,"INCLINATION":82.484,"RA_OF_ASC_NODE":110.5073,"ARG_OF_PERICENTER":148.9848,"MEAN_ANOMALY":211.2122,"EPHEMERIS_TYPE":0,"CLASSIFICATION_TYPE":"U","NORAD_CAT_ID":40922,"ELEMENT_SET_NO":999,"REV_AT_EPOCH":48045,"BSTAR":-0.00017502,"MEAN_MOTION_DOT":-1.4e-7,"MEAN_MOTION_DDOT":0}]
